#dP2022 10 11 12  0  0.00000000      96 __u+U ITR00 EXT  IAC
## 2231 216000.00000000   900.00000000 59863 0.5000000000000
+  118   C06C07C08C09C10C11C12C13C14C16C19C20C21C22C23C24C25
+        C26C27C28C29C30C32C33C34C35C36C37C38C39C40C41C42C43
+        C44C45C46E01E02E03E04E05E07E08E09E10E11E12E13E14E15
+        E18E19E21E24E25E26E27E30E31E33E34E36G01G02G03G04G05
+        G06G07G08G09G10G11G12G13G14G15G16G17G18G19G20G21G22
+        G23G24G25G26G27G28G29G30G31G32J02J03J04R01R02R03R04
+        R05R07R08R09R11R12R13R14R15R17R18R19R20R21R22R24  0
++        11 10  9 10 10  9  8  8 11 11  8  7  8  8  8  8  9
++         9  7 10  8  9 11  9  8  9  8  8  9 10  6  7  8  9
++         9  9  8  9  7  7  8  9  8  8  7  9  8  6  8  7  7
++         9  8  9  8  7  8  7  8  9  8  7  7  8  7  8  8  7
++         8  9  8  7  7  7  8  7  7  7  7  8  8  8  9  8  8
++         6  8  7  7  7  8  7  6  8  7 11  8  9  9  7  9  9
++         8  9  9  9 10  9  7  9  9  7  8  7 10 10  9  9  0
%c M  cc GPS ccc cccc cccc cccc cccc ccccc ccccc ccccc ccccc
%c cc cc ccc ccc cccc cccc cccc cccc ccccc ccccc ccccc ccccc
%f  0.0000000  0.000000000  0.00000000000  0.000000000000000
%f  0.0000000  0.000000000  0.00000000000  0.000000000000000
%i    0    0    0    0      0      0      0      0         0
%i    0    0    0    0      0      0      0      0         0
/* IAC                                ULTRA-RAPID PREDICTION
/* S/V CLOCKS ARE ALIGNED TO GNSS TIME                      
/* G:C1WC2W R:C1PC2P E:C1XC5X C:C2IC6I J:C1CC2S             
/* PCV:IGS14_2218 OL/AL:FES2004  NONE     YN ORB:CoN CLK:CoN
*  2022 10 11 12  0  0.00000000
PC06 -17911.286165  28402.742111  25368.743451    898.389901
PC07  -8031.727075  40009.045999  10996.711981   -261.701928
PC08  -2243.585983  22558.619816 -35528.891114    491.987876
PC09  -7719.234954  27332.415430  31374.507787   -837.946712
PC10  -2437.030187  42138.866820   4746.142423     85.195371
PC11  13808.556020   9027.596247 -22429.823348   -357.761237
PC12  -4634.507010  18454.413506 -20380.696627   -486.291412
PC13   6178.141818  26825.214557 -31722.520469    104.012953
PC14  12022.502666  19179.470820  16363.502948    562.758876
PC16 -22105.220686  27861.807206  22618.811770    130.270813
PC19 -15090.821510  -9401.382806 -21489.661024   -851.711664
PC20  -7897.348350 -24748.759495 -10157.060867    866.808805
PC21  -4630.909194  26294.873566  -8141.315807   -580.494905
PC22 -13936.404936  12101.524966 -20946.247243   -857.004362
PC23  21368.598634  -3007.544657 -17682.252331   -504.114255
PC24  13679.915401  19325.937577  14740.590531   -560.883468
PC25  25692.987522  10399.493858  -3136.425558      8.148522
PC26  -3681.168967  16161.772144  22435.762330    -19.939420
PC27  13031.859548 -19819.703464  14688.887506     34.264328
PC28  24285.876795 -13670.512959  -1332.834827     23.052974
PC29 -21560.834665   -494.666776  17708.250613     25.344267
PC30  -5758.131443 -15136.619281  22722.931580      0.453125
PC32   4505.878737 -26274.206448   8249.449889   -764.132529
PC33  15156.996081   9454.763808  21436.646350   -884.743951
PC34   6956.514138  14492.696775 -22817.901362     14.305644
PC35 -24182.389551  13623.607010   2744.262353     36.883707
PC36 -25355.465518 -11383.991125   2584.566834   -633.664397
PC37   5369.108665 -15481.399224 -22573.207083   -473.409041
PC38 -11115.468055  20294.091450 -35232.323533     30.332214
PC39 -25228.008303  28484.295804  17970.310625     -0.611148
PC40 -13095.732165  37330.187099  14886.088412     -5.826434
PC41  14117.390419 -11535.843702  21170.672812   -162.474570
PC42   7307.705056  25360.219005   9126.279987   -454.255358
PC43  21202.198246   1280.431128 -18113.025219     18.991653
PC44 -12402.042983  20351.183693 -14506.787213     78.079467
PC45 -21120.951443   3203.030014  17973.532534     -8.470576
PC46 -15332.572680 -19066.641912 -13455.362529     -5.588499
PE01  15990.397685  -5578.656910 -24267.947064   -544.623907
PE02 -15906.258894   5754.666149  24296.898535    330.075993
PE03 -20035.577840  17172.323181 -13430.405975   -608.656426
PE04  11099.091737 -27083.761549  -4418.098265  -1134.308693
PE05 -17377.064657  -3071.337226 -23768.844954   -135.583399
PE07   4663.956168  21198.550647  20127.297529   -712.386768
PE08 -11022.080994  27109.396691   4473.943253   -613.557227
PE09  -4503.207360 -21224.753792 -20133.434211   -689.404114
PE10  -1462.029760 -15970.021488  24872.845388   -482.917363
PE11 -13516.663694 -14021.011792  22280.954808   1839.491591
PE12   9948.108350 -15384.913929  23248.163711   -216.334779
PE13  12639.917176  14185.951253 -22692.474539    430.671992
PE14  -7808.725486 -13946.270576  17534.332726     24.618268
PE15 -10188.714931  15288.670274 -23204.864698    714.763326
PE18   7610.630665  21393.879987 -22921.182821   -874.203920
PE19  20368.556067 -14859.692301  15510.387841  -4295.404194
PE21  21005.349949  13185.291531 -16149.598560   -762.807936
PE24 -13658.184748 -26132.936482  -2737.822808   -885.222729
PE25 -21008.290696 -13456.550872  15945.985805   -589.913744
PE26  28152.941424   4356.693184  -8008.069004  -1714.601260
PE27  14375.960330  25808.416633   1777.881855   -412.780614
PE30  -1444.253728  22685.204297  18950.749810   -907.517903
PE31    623.468098 -23124.785271 -18455.962992   -505.496745
PE33  26854.203945  -7369.370587  10034.099196   -454.597894
PE34 -26765.056902   7519.194934 -10195.451304     -8.916307
PE36 -27833.131676  -4777.223193   8878.434149   -444.297491
PG01  13967.413229  13348.184611 -18686.971330    269.310288
PG02 -10595.990859 -13964.192057  20559.099019   -642.789127
PG03  11761.910086  23880.944989   -295.784924   -363.205150
PG04   5254.699745  16672.982978  19970.082349   -105.306601
PG05  -4417.623148 -23627.448773  10983.908856    -99.977114
PG06  22067.948174  -7175.216629  13049.496532    488.003807
PG07  25081.751222   6684.182125   7156.441264    299.780058
PG08  -2605.443139  22363.970341 -13835.690508    -88.368795
PG09  14357.524123   5774.768939  21510.962107   -284.671711
PG10 -15916.669791    303.748340 -21163.311271     -7.036386
PG11  12182.670734 -12571.724142  19965.804884    -24.659998
PG12  -9802.263362 -24743.273636   -668.933110   -290.969647
PG13  11593.108933 -22243.284567  -8614.469473    404.026487
PG14  16883.752911   1828.618844 -20439.099781    -96.123898
PG15   -660.199323 -22668.417636 -14027.649170    -21.804788
PG16  -3106.086246  21005.251854  15383.607857   -526.037702
PG17  19436.407408  -8152.161318 -15760.056609    667.697765
PG18 -25506.341575  -5580.388706   5264.385633     18.495176
PG19  19819.867490 -15770.144518  -7782.684015    222.360442
PG20   5842.155671 -16566.116629  19994.372658    479.270843
PG21   5469.849724  14547.979475 -21018.311420    158.190895
PG22 -18374.190431  18421.109755  -4426.704908    343.713541
PG23 -18284.367751 -10433.767968 -16283.403338     -0.919518
PG24 -10283.499858 -14601.169044 -20101.736638    103.932294
PG25 -16817.139237 -18389.469268   9280.878404    381.257197
PG26  -9745.570406  13425.941184  20592.340154    232.040996
PG27 -12065.804233  23142.770115  -3801.651782    199.752503
PG28  12664.420006  -8162.892655 -21388.197025    330.327723
PG29 -12627.627537  -7812.058093  21981.217067   -558.775393
PG30  26289.488012  -1325.553425  -4366.262804   -537.227091
PG31 -21751.584644   7722.761324  13389.267496   -196.411350
PG32 -19176.313320  11388.778782 -14122.564535   -259.992482
PJ02 -25277.299432  23286.271862  29427.000125     -6.977279
PJ03 -35385.447963  20178.831198  -6311.554573     -2.741501
PJ04 -19980.522405  29671.689206 -17159.542593    111.755132
PR01  11130.060851 -10823.796593  20230.912720     16.077640
PR02   6219.708604 -24262.222392   5054.288220    -22.946052
PR03  -2475.307059 -22324.957867 -12110.972498     65.283822
PR04  -9321.544401  -8004.031213 -22335.554649    160.781205
PR05 -11255.061623  10599.290023 -20275.415795    101.072077
PR07   2897.083476  21812.601326  12887.621826     42.393426
PR08   9550.366645   7774.455632  22383.005821    -67.580391
PR09   -845.178810  12986.421702  21972.163912     81.455814
PR11  21189.641587  13300.424051  -5003.250366     24.861120
PR12  15740.511466    157.946904 -20036.798092     21.936970
PR13   2262.514611 -11851.539831 -22484.399556    -27.693934
PR14 -14219.034465 -17937.457778 -11224.531057     24.211637
PR15 -21139.626945 -12938.720137   6048.828402     93.270781
PR17  -4171.010484  -9694.792777  23232.883920    568.156902
PR18 -18969.447436   -985.544195  17019.473245     46.595102
PR19 -24340.459592   6986.458682   3127.774417   -206.863798
PR20 -14878.910540  12771.866450 -16286.430664    -79.996412
PR21   5667.086208   8997.645399 -23181.954697   -340.700089
PR22  19540.889208   1541.241885 -16299.474548     14.219479
PR24  13801.083346 -13538.572037  16645.158865    119.690079
EOF
